{
  "norad_id": 63480,
  "name": "STARLINK-33721",
  "history": [
    {
      "epoch": "2026-03-28T21:08:17.330496Z",
      "apogee_km": 483.6048142250529,
      "perigee_km": 482.45803853426787,
      "latitude_deg": 1.6010280110512887e-05,
      "longitude_deg": 4.378857890313835,
      "height_km": 482.9215616774379,
      "semi_major_axis_km": 6861.168426379661,
      "eccentricity": 8.357e-05,
      "inclination_deg": 43.0,
      "raan_deg": 147.7459,
      "arg_perigee_deg": 258.5366,
      "mean_anomaly_deg": 101.5392,
      "mean_motion_rev_day": 15.27585901
    },
    {
      "epoch": "2026-03-29T04:59:04.119648Z",
      "apogee_km": 483.7631965002429,
      "perigee_km": 482.25923281158884,
      "latitude_deg": 2.5883163231827983e-05,
      "longitude_deg": -115.48352366021075,
      "height_km": 483.1270334840039,
      "semi_major_axis_km": 6861.148214655916,
      "eccentricity": 0.0001096,
      "inclination_deg": 43.0025,
      "raan_deg": 145.9007,
      "arg_perigee_deg": 243.1829,
      "mean_anomaly_deg": 116.8911,
      "mean_motion_rev_day": 15.27592651
    },
    {
      "epoch": "2026-03-30T02:57:15.770880Z",
      "apogee_km": 483.3835720116076,
      "perigee_km": 482.67961611385726,
      "latitude_deg": 4.3320402890180865e-05,
      "longitude_deg": -91.10242318341913,
      "height_km": 482.646641606858,
      "semi_major_axis_km": 6861.168594062732,
      "eccentricity": 5.13e-05,
      "inclination_deg": 43.0037,
      "raan_deg": 140.7326,
      "arg_perigee_deg": 297.2645,
      "mean_anomaly_deg": 62.8155,
      "mean_motion_rev_day": 15.27585845
    },
    {
      "epoch": "2026-03-30T02:57:15.771744Z",
      "apogee_km": 483.3832975648638,
      "perigee_km": 482.67989056060105,
      "latitude_deg": 4.052293535984453e-05,
      "longitude_deg": -91.10242977622677,
      "height_km": 482.6467673126042,
      "semi_major_axis_km": 6861.168594062732,
      "eccentricity": 5.126e-05,
      "inclination_deg": 43.0037,
      "raan_deg": 140.7326,
      "arg_perigee_deg": 297.2645,
      "mean_anomaly_deg": 62.8155,
      "mean_motion_rev_day": 15.27585845
    },
    {
      "epoch": "2026-03-30T12:22:12.088416Z",
      "apogee_km": 483.9072856257071,
      "perigee_km": 482.18238451237085,
      "latitude_deg": 2.7300607164264784e-05,
      "longitude_deg": 125.05831704134106,
      "height_km": 482.80481131604427,
      "semi_major_axis_km": 6861.181835069039,
      "eccentricity": 0.0001257,
      "inclination_deg": 43.0015,
      "raan_deg": 138.5147,
      "arg_perigee_deg": 271.1143,
      "mean_anomaly_deg": 88.9565,
      "mean_motion_rev_day": 15.27581423
    },
    {
      "epoch": "2026-03-30T20:12:59.751072Z",
      "apogee_km": 483.58893606536185,
      "perigee_km": 482.4915593763617,
      "latitude_deg": -2.090189976369214e-05,
      "longitude_deg": 5.193224313262736,
      "height_km": 482.4739872687149,
      "semi_major_axis_km": 6861.1772477208615,
      "eccentricity": 7.997e-05,
      "inclination_deg": 42.9983,
      "raan_deg": 136.6705,
      "arg_perigee_deg": 51.5937,
      "mean_anomaly_deg": 308.4986,
      "mean_motion_rev_day": 15.27582955
    },
    {
      "epoch": "2026-03-31T04:03:45.956160Z",
      "apogee_km": 484.0565379551217,
      "perigee_km": 482.02892212130064,
      "latitude_deg": 4.52689834883568e-06,
      "longitude_deg": -114.6683000209259,
      "height_km": 482.90385240802374,
      "semi_major_axis_km": 6861.179730038211,
      "eccentricity": 0.00014776,
      "inclination_deg": 43.0038,
      "raan_deg": 134.8237,
      "arg_perigee_deg": 265.2501,
      "mean_anomaly_deg": 94.8182,
      "mean_motion_rev_day": 15.27582126
    },
    {
      "epoch": "2026-04-01T19:17:40.574976Z",
      "apogee_km": 483.59731770588223,
      "perigee_km": 482.4281777888664,
      "latitude_deg": 1.752741201632741e-05,
      "longitude_deg": 6.010043244149505,
      "height_km": 482.713391588042,
      "semi_major_axis_km": 6861.149747747374,
      "eccentricity": 8.52e-05,
      "inclination_deg": 42.9985,
      "raan_deg": 125.5908,
      "arg_perigee_deg": 277.4126,
      "mean_anomaly_deg": 82.6629,
      "mean_motion_rev_day": 15.27592139
    },
    {
      "epoch": "2026-04-02T18:50:01.128192Z",
      "apogee_km": 483.4938511579712,
      "perigee_km": 482.4907540539298,
      "latitude_deg": -8.968628931126528e-06,
      "longitude_deg": 6.417463248318907,
      "height_km": 482.65010624402447,
      "semi_major_axis_km": 6861.12930260595,
      "eccentricity": 7.31e-05,
      "inclination_deg": 42.9978,
      "raan_deg": 120.0506,
      "arg_perigee_deg": 283.6153,
      "mean_anomaly_deg": 76.4617,
      "mean_motion_rev_day": 15.27598967
    },
    {
      "epoch": "2026-04-02T18:50:01.129056Z",
      "apogee_km": 483.4937139353842,
      "perigee_km": 482.4908912765168,
      "latitude_deg": -1.0497257062846176e-05,
      "longitude_deg": 6.417458008144289,
      "height_km": 482.65013854186077,
      "semi_major_axis_km": 6861.12930260595,
      "eccentricity": 7.308e-05,
      "inclination_deg": 42.9978,
      "raan_deg": 120.0506,
      "arg_perigee_deg": 283.6153,
      "mean_anomaly_deg": 76.4617,
      "mean_motion_rev_day": 15.27598967
    },
    {
      "epoch": "2026-04-03T02:40:47.748000Z",
      "apogee_km": 483.6192909251449,
      "perigee_km": 482.36397883010704,
      "latitude_deg": -7.837362722288562e-06,
      "longitude_deg": -113.44492000639823,
      "height_km": 482.8665664434754,
      "semi_major_axis_km": 6861.128634877626,
      "eccentricity": 9.148e-05,
      "inclination_deg": 43.0013,
      "raan_deg": 118.2047,
      "arg_perigee_deg": 260.9685,
      "mean_anomaly_deg": 99.1063,
      "mean_motion_rev_day": 15.2759919
    },
    {
      "epoch": "2026-04-04T10:03:55.252800Z",
      "apogee_km": 483.95748230743993,
      "perigee_km": 482.2609705654904,
      "latitude_deg": -1.5191590793246899e-05,
      "longitude_deg": 127.1002483689715,
      "height_km": 483.0369008773537,
      "semi_major_axis_km": 6861.246226436465,
      "eccentricity": 0.00012363,
      "inclination_deg": 43.0005,
      "raan_deg": 110.8201,
      "arg_perigee_deg": 259.7399,
      "mean_anomaly_deg": 100.3313,
      "mean_motion_rev_day": 15.27559919
    },
    {
      "epoch": "2026-04-05T09:36:17.228160Z",
      "apogee_km": 483.9328632121733,
      "perigee_km": 482.1999976737807,
      "latitude_deg": 4.883549182151653e-06,
      "longitude_deg": 127.50307415768631,
      "height_km": 482.8507075692602,
      "semi_major_axis_km": 6861.203430442977,
      "eccentricity": 0.00012628,
      "inclination_deg": 43.0022,
      "raan_deg": 105.2812,
      "arg_perigee_deg": 269.5076,
      "mean_anomaly_deg": 90.5631,
      "mean_motion_rev_day": 15.27574211
    },
    {
      "epoch": "2026-04-05T17:27:03.967200Z",
      "apogee_km": 483.6456498122034,
      "perigee_km": 482.3392907610605,
      "latitude_deg": -3.337069250640924e-05,
      "longitude_deg": 7.63955001404623,
      "height_km": 482.8911498870472,
      "semi_major_axis_km": 6861.129470286632,
      "eccentricity": 9.52e-05,
      "inclination_deg": 43.0015,
      "raan_deg": 103.4347,
      "arg_perigee_deg": 259.215,
      "mean_anomaly_deg": 100.8594,
      "mean_motion_rev_day": 15.27598911
    },
    {
      "epoch": "2026-04-06T01:17:50.139456Z",
      "apogee_km": 483.6849688413986,
      "perigee_km": 482.1330002396944,
      "latitude_deg": 5.6926840170473005e-05,
      "longitude_deg": -112.22206901456089,
      "height_km": 482.8544529743509,
      "semi_major_axis_km": 6861.045984540546,
      "eccentricity": 0.0001131,
      "inclination_deg": 43.0012,
      "raan_deg": 101.5876,
      "arg_perigee_deg": 257.427,
      "mean_anomaly_deg": 102.6456,
      "mean_motion_rev_day": 15.27626793
    },
    {
      "epoch": "2026-04-07T07:06:49.442976Z",
      "apogee_km": 484.09079965766614,
      "perigee_km": 481.94449326116046,
      "latitude_deg": 8.915745070710573e-06,
      "longitude_deg": 152.28905952660918,
      "height_km": 482.970495813806,
      "semi_major_axis_km": 6861.154646459413,
      "eccentricity": 0.00015641,
      "inclination_deg": 43.0032,
      "raan_deg": 94.5704,
      "arg_perigee_deg": 260.5769,
      "mean_anomaly_deg": 99.4906,
      "mean_motion_rev_day": 15.27590503
    },
    {
      "epoch": "2026-04-07T16:31:45.587712Z",
      "apogee_km": 484.367088078744,
      "perigee_km": 481.6130316769086,
      "latitude_deg": 1.3450039148009663e-05,
      "longitude_deg": 8.454342034901781,
      "height_km": 482.81932276740696,
      "semi_major_axis_km": 6861.1270598778265,
      "eccentricity": 0.0002007,
      "inclination_deg": 43.0008,
      "raan_deg": 92.3563,
      "arg_perigee_deg": 267.8356,
      "mean_anomaly_deg": 92.2266,
      "mean_motion_rev_day": 15.27599716
    },
    {
      "epoch": "2026-04-08T00:22:32.820096Z",
      "apogee_km": 483.51072487673173,
      "perigee_km": 482.53397023201524,
      "latitude_deg": -2.333401221510689e-06,
      "longitude_deg": -111.41191975031887,
      "height_km": 482.7909022173947,
      "semi_major_axis_km": 6861.159347554373,
      "eccentricity": 7.118e-05,
      "inclination_deg": 42.9996,
      "raan_deg": 90.5091,
      "arg_perigee_deg": 270.88,
      "mean_anomaly_deg": 89.197,
      "mean_motion_rev_day": 15.27588933
    }
  ]
}